[{"OBJECT_NAME":"IRIDIUM 152","OBJECT_ID":"2018-047D","EPOCH":"2026-04-26T11:21:18.253152","MEAN_MOTION":14.34217727,"ECCENTRICITY":0.000221,"INCLINATION":86.3918,"RA_OF_ASC_NODE":109.9589,"ARG_OF_PERICENTER":91.9693,"MEAN_ANOMALY":268.1756,"EPHEMERIS_TYPE":0,"CLASSIFICATION_TYPE":"U","NORAD_CAT_ID":43479,"ELEMENT_SET_NO":999,"REV_AT_EPOCH":41507,"BSTAR":1.1903e-5,"MEAN_MOTION_DOT":5.3e-7,"MEAN_MOTION_DDOT":0},{"OBJECT_NAME":"IRIDIUM 147","OBJECT_ID":"2018-047E","EPOCH":"2026-04-26T11:30:26.222688","MEAN_MOTION":14.34217496,"ECCENTRICITY":0.0002229,"INCLINATION":86.3924,"RA_OF_ASC_NODE":109.9606,"ARG_OF_PERICENTER":86.8665,"MEAN_ANOMALY":273.2786,"EPHEMERIS_TYPE":0,"CLASSIFICATION_TYPE":"U","NORAD_CAT_ID":43480,"ELEMENT_SET_NO":999,"REV_AT_EPOCH":41507,"BSTAR":-1.6565e-6,"MEAN_MOTION_DOT":1.5e-7,"MEAN_MOTION_DDOT":0},{"OBJECT_NAME":"IRIDIUM 110","OBJECT_ID":"2018-047F","EPOCH":"2026-04-26T11:39:34.080768","MEAN_MOTION":14.34217608,"ECCENTRICITY":0.0001842,"INCLINATION":86.3928,"RA_OF_ASC_NODE":110.0485,"ARG_OF_PERICENTER":95.2777,"MEAN_ANOMALY":264.8629,"EPHEMERIS_TYPE":0,"CLASSIFICATION_TYPE":"U","NORAD_CAT_ID":43481,"ELEMENT_SET_NO":999,"REV_AT_EPOCH":41506,"BSTAR":-2.0922e-6,"MEAN_MOTION_DOT":1.4e-7,"MEAN_MOTION_DDOT":0},{"OBJECT_NAME":"IRIDIUM 162","OBJECT_ID":"2018-047G","EPOCH":"2026-04-26T10:36:18.889056","MEAN_MOTION":14.43281463,"ECCENTRICITY":0.0002401,"INCLINATION":86.4444,"RA_OF_ASC_NODE":110.003,"ARG_OF_PERICENTER":91.8622,"MEAN_ANOMALY":268.2853,"EPHEMERIS_TYPE":0,"CLASSIFICATION_TYPE":"U","NORAD_CAT_ID":43482,"ELEMENT_SET_NO":999,"REV_AT_EPOCH":41766,"BSTAR":4.9356e-5,"MEAN_MOTION_DOT":1.86e-6,"MEAN_MOTION_DDOT":0},{"OBJECT_NAME":"IRIDIUM 160","OBJECT_ID":"2018-061A","EPOCH":"2026-04-26T10:21:34.479648","MEAN_MOTION":14.34217214,"ECCENTRICITY":0.000213,"INCLINATION":86.394,"RA_OF_ASC_NODE":78.4344,"ARG_OF_PERICENTER":86.0179,"MEAN_ANOMALY":274.126,"EPHEMERIS_TYPE":0,"CLASSIFICATION_TYPE":"U","NORAD_CAT_ID":43569,"ELEMENT_SET_NO":999,"REV_AT_EPOCH":40595,"BSTAR":5.4873e-6,"MEAN_MOTION_DOT":3.5e-7,"MEAN_MOTION_DDOT":0},{"OBJECT_NAME":"IRIDIUM 166","OBJECT_ID":"2018-061B","EPOCH":"2026-04-26T09:17:40.173792","MEAN_MOTION":14.34218156,"ECCENTRICITY":0.0002362,"INCLINATION":86.3937,"RA_OF_ASC_NODE":78.4039,"ARG_OF_PERICENTER":84.2532,"MEAN_ANOMALY":275.8933,"EPHEMERIS_TYPE":0,"CLASSIFICATION_TYPE":"U","NORAD_CAT_ID":43570,"ELEMENT_SET_NO":999,"REV_AT_EPOCH":40597,"BSTAR":9.4064e-5,"MEAN_MOTION_DOT":2.83e-6,"MEAN_MOTION_DDOT":0},{"OBJECT_NAME":"IRIDIUM 158","OBJECT_ID":"2018-061C","EPOCH":"2026-04-26T10:12:26.483328","MEAN_MOTION":14.3421742,"ECCENTRICITY":0.0002176,"INCLINATION":86.394,"RA_OF_ASC_NODE":78.3983,"ARG_OF_PERICENTER":89.7741,"MEAN_ANOMALY":270.3704,"EPHEMERIS_TYPE":0,"CLASSIFICATION_TYPE":"U","NORAD_CAT_ID":43571,"ELEMENT_SET_NO":999,"REV_AT_EPOCH":40594,"BSTAR":-7.3383e-6,"MEAN_MOTION_DOT":-1.0e-8,"MEAN_MOTION_DDOT":0},{"OBJECT_NAME":"IRIDIUM 165","OBJECT_ID":"2018-061D","EPOCH":"2026-04-26T09:08:30.504768","MEAN_MOTION":14.34217536,"ECCENTRICITY":0.0002354,"INCLINATION":86.3939,"RA_OF_ASC_NODE":78.4619,"ARG_OF_PERICENTER":84.1527,"MEAN_ANOMALY":275.9937,"EPHEMERIS_TYPE":0,"CLASSIFICATION_TYPE":"U","NORAD_CAT_ID":43572,"ELEMENT_SET_NO":999,"REV_AT_EPOCH":40596,"BSTAR":3.5239e-6,"MEAN_MOTION_DOT":3.0e-7,"MEAN_MOTION_DDOT":0},{"OBJECT_NAME":"IRIDIUM 155","OBJECT_ID":"2018-061E","EPOCH":"2026-04-26T09:54:10.512288","MEAN_MOTION":14.34217493,"ECCENTRICITY":0.0002401,"INCLINATION":86.3935,"RA_OF_ASC_NODE":78.3202,"ARG_OF_PERICENTER":88.1353,"MEAN_ANOMALY":272.0118,"EPHEMERIS_TYPE":0,"CLASSIFICATION_TYPE":"U","NORAD_CAT_ID":43573,"ELEMENT_SET_NO":999,"REV_AT_EPOCH":40593,"BSTAR":8.9457e-6,"MEAN_MOTION_DOT":4.5e-7,"MEAN_MOTION_DDOT":0},{"OBJECT_NAME":"IRIDIUM 154","OBJECT_ID":"2018-061F","EPOCH":"2026-04-26T09:26:46.487040","MEAN_MOTION":14.34217629,"ECCENTRICITY":0.0002327,"INCLINATION":86.3939,"RA_OF_ASC_NODE":78.4593,"ARG_OF_PERICENTER":83.0654,"MEAN_ANOMALY":277.0806,"EPHEMERIS_TYPE":0,"CLASSIFICATION_TYPE":"U","NORAD_CAT_ID":43574,"ELEMENT_SET_NO":999,"REV_AT_EPOCH":40598,"BSTAR":2.207e-5,"MEAN_MOTION_DOT":8.2e-7,"MEAN_MOTION_DDOT":0},{"OBJECT_NAME":"IRIDIUM 163","OBJECT_ID":"2018-061G","EPOCH":"2026-04-26T10:39:50.446368","MEAN_MOTION":14.34218744,"ECCENTRICITY":0.0002233,"INCLINATION":86.3937,"RA_OF_ASC_NODE":78.355,"ARG_OF_PERICENTER":89.3232,"MEAN_ANOMALY":270.822,"EPHEMERIS_TYPE":0,"CLASSIFICATION_TYPE":"U","NORAD_CAT_ID":43575,"ELEMENT_SET_NO":999,"REV_AT_EPOCH":40596,"BSTAR":8.0858e-5,"MEAN_MOTION_DOT":2.46e-6,"MEAN_MOTION_DDOT":0},{"OBJECT_NAME":"IRIDIUM 156","OBJECT_ID":"2018-061H","EPOCH":"2026-04-26T08:22:50.517120","MEAN_MOTION":14.34217257,"ECCENTRICITY":0.0002317,"INCLINATION":86.3938,"RA_OF_ASC_NODE":78.4022,"ARG_OF_PERICENTER":88.0536,"MEAN_ANOMALY":272.0925,"EPHEMERIS_TYPE":0,"CLASSIFICATION_TYPE":"U","NORAD_CAT_ID":43576,"ELEMENT_SET_NO":999,"REV_AT_EPOCH":40594,"BSTAR":-9.9851e-6,"MEAN_MOTION_DOT":-8.0e-8,"MEAN_MOTION_DDOT":0},{"OBJECT_NAME":"IRIDIUM 164","OBJECT_ID":"2018-061J","EPOCH":"2026-04-26T09:35:54.422880","MEAN_MOTION":14.34217937,"ECCENTRICITY":0.0002276,"INCLINATION":86.3939,"RA_OF_ASC_NODE":78.4203,"ARG_OF_PERICENTER":82.3077,"MEAN_ANOMALY":277.8377,"EPHEMERIS_TYPE":0,"CLASSIFICATION_TYPE":"U","NORAD_CAT_ID":43577,"ELEMENT_SET_NO":999,"REV_AT_EPOCH":40599,"BSTAR":1.2423e-5,"MEAN_MOTION_DOT":5.5e-7,"MEAN_MOTION_DDOT":0},{"OBJECT_NAME":"IRIDIUM 159","OBJECT_ID":"2018-061K","EPOCH":"2026-04-26T10:30:42.456096","MEAN_MOTION":14.34217493,"ECCENTRICITY":0.000205,"INCLINATION":86.3939,"RA_OF_ASC_NODE":78.3426,"ARG_OF_PERICENTER":87.4354,"MEAN_ANOMALY":272.7076,"EPHEMERIS_TYPE":0,"CLASSIFICATION_TYPE":"U","NORAD_CAT_ID":43578,"ELEMENT_SET_NO":999,"REV_AT_EPOCH":40596,"BSTAR":-2.1749e-5,"MEAN_MOTION_DOT":-4.1e-7,"MEAN_MOTION_DDOT":0},{"OBJECT_NAME":"IRIDIUM 180","OBJECT_ID":"2019-002A","EPOCH":"2026-04-26T10:29:58.866432","MEAN_MOTION":14.34218187,"ECCENTRICITY":0.0002082,"INCLINATION":86.4015,"RA_OF_ASC_NODE":15.2237,"ARG_OF_PERICENTER":85.6124,"MEAN_ANOMALY":274.531,"EPHEMERIS_TYPE":0,"CLASSIFICATION_TYPE":"U","NORAD_CAT_ID":43922,"ELEMENT_SET_NO":999,"REV_AT_EPOCH":38157,"BSTAR":5.0305e-5,"MEAN_MOTION_DOT":1.61e-6,"MEAN_MOTION_DDOT":0},{"OBJECT_NAME":"IRIDIUM 176","OBJECT_ID":"2019-002B","EPOCH":"2026-04-26T10:27:12.066912","MEAN_MOTION":14.72258426,"ECCENTRICITY":0.0002492,"INCLINATION":86.6134,"RA_OF_ASC_NODE":15.1754,"ARG_OF_PERICENTER":82.2372,"MEAN_ANOMALY":277.9128,"EPHEMERIS_TYPE":0,"CLASSIFICATION_TYPE":"U","NORAD_CAT_ID":43923,"ELEMENT_SET_NO":999,"REV_AT_EPOCH":39163,"BSTAR":0.00012661,"MEAN_MOTION_DOT":8.23e-6,"MEAN_MOTION_DDOT":0},{"OBJECT_NAME":"IRIDIUM 168","OBJECT_ID":"2019-002C","EPOCH":"2026-04-26T10:20:52.027008","MEAN_MOTION":14.34220237,"ECCENTRICITY":0.0002154,"INCLINATION":86.4017,"RA_OF_ASC_NODE":15.3021,"ARG_OF_PERICENTER":84.5775,"MEAN_ANOMALY":275.5667,"EPHEMERIS_TYPE":0,"CLASSIFICATION_TYPE":"U","NORAD_CAT_ID":43924,"ELEMENT_SET_NO":999,"REV_AT_EPOCH":38155,"BSTAR":8.4444e-5,"MEAN_MOTION_DOT":2.56e-6,"MEAN_MOTION_DDOT":0}]
