IRIDIUM 152             
1 43479U 18047D   26116.47312793  .00000053  00000+0  11903-4 0  9994
2 43479  86.3918 109.9589 0002210  91.9693 268.1756 14.34217727415077
IRIDIUM 147             
1 43480U 18047E   26116.47947017  .00000015  00000+0 -16565-5 0  9998
2 43480  86.3924 109.9606 0002229  86.8665 273.2786 14.34217496415071
IRIDIUM 110             
1 43481U 18047F   26116.48581112  .00000014  00000+0 -20922-5 0  9991
2 43481  86.3928 110.0485 0001842  95.2777 264.8629 14.34217608415068
IRIDIUM 162             
1 43482U 18047G   26116.44188529  .00000186  00000+0  49356-4 0  9993
2 43482  86.4444 110.0030 0002401  91.8622 268.2853 14.43281463417667
IRIDIUM 160             
1 43569U 18061A   26116.43164907  .00000035  00000+0  54873-5 0  9992
2 43569  86.3940  78.4344 0002130  86.0179 274.1260 14.34217214405950
IRIDIUM 166             
1 43570U 18061B   26116.38727053  .00000283  00000+0  94064-4 0  9995
2 43570  86.3937  78.4039 0002362  84.2532 275.8933 14.34218156405972
IRIDIUM 158             
1 43571U 18061C   26116.42530652 -.00000001  00000+0 -73383-5 0  9990
2 43571  86.3940  78.3983 0002176  89.7741 270.3704 14.34217420405945
IRIDIUM 165             
1 43572U 18061D   26116.38090862  .00000030  00000+0  35239-5 0  9998
2 43572  86.3939  78.4619 0002354  84.1527 275.9937 14.34217536405969
IRIDIUM 155             
1 43573U 18061E   26116.41262167  .00000045  00000+0  89457-5 0  9999
2 43573  86.3935  78.3202 0002401  88.1353 272.0118 14.34217493405935
IRIDIUM 154             
1 43574U 18061F   26116.39359360  .00000082  00000+0  22070-4 0  9997
2 43574  86.3939  78.4593 0002327  83.0654 277.0806 14.34217629405984
IRIDIUM 163             
1 43575U 18061G   26116.44433387  .00000246  00000+0  80858-4 0  9996
2 43575  86.3937  78.3550 0002233  89.3232 270.8220 14.34218744405960
IRIDIUM 156             
1 43576U 18061H   26116.34919580 -.00000008  00000+0 -99851-5 0  9992
2 43576  86.3938  78.4022 0002317  88.0536 272.0925 14.34217257405945
IRIDIUM 164             
1 43577U 18061J   26116.39993545  .00000055  00000+0  12423-4 0  9990
2 43577  86.3939  78.4203 0002276  82.3077 277.8377 14.34217937405993
IRIDIUM 159             
1 43578U 18061K   26116.43799139 -.00000041  00000+0 -21749-4 0  9997
2 43578  86.3939  78.3426 0002050  87.4354 272.7076 14.34217493405968
IRIDIUM 180             
1 43922U 19002A   26116.43748688  .00000161  00000+0  50305-4 0  9990
2 43922  86.4015  15.2237 0002082  85.6124 274.5310 14.34218187381579
IRIDIUM 176             
1 43923U 19002B   26116.43555633  .00000823  00000+0  12661-3 0  9994
2 43923  86.6134  15.1754 0002492  82.2372 277.9128 14.72258426391634
IRIDIUM 168             
1 43924U 19002C   26116.43115772  .00000256  00000+0  84444-4 0  9990
2 43924  86.4017  15.3021 0002154  84.5775 275.5667 14.34220237381558
